TempleName,LordGod,Area,Address,lat,long
富安宮,五府千歲,嘉義縣,嘉義縣東石鄉副瀨村6鄰57號,23.4852917,120.1725488
國姓廟,延平郡王,嘉義縣,嘉義縣東石鄉猿樹村4鄰35之2號,23.460151,120.154219
笨港口港口宮,天上聖母,嘉義縣,嘉義縣東石鄉港口村八鄰五號,23.4953495,120.1860318
福安宮,五府千歲,嘉義縣,嘉義縣東石鄉型厝村10鄰109號,23.4800864,120.161817
濟興宮,保生大帝,嘉義縣,嘉義縣梅山鄉三美庄梅北村二十二號,23.588377,120.543666
清德寺,觀音佛祖,嘉義縣,嘉義縣東石鄉港墘村1鄰102號,23.460065,120.2123698
普濟寺,南無佛掱觀世音菩薩,嘉義縣,嘉義縣東石鄉三家村5號之8,23.467659,120.1720151
禪林寺,釋迦佛祖,嘉義縣,嘉義縣梅山鄉圳北村一鄰二十之一號,23.578261,120.571229
保安宮,邢王爺,嘉義縣,嘉義縣東石鄉掌潭村3鄰34號,23.4187786,120.1652732
臨水宮,三奶夫人,嘉義縣,嘉義縣東石鄉黎明東石村20鄰5號,23.4541141,120.147184
遊天宮,刑府千歲,嘉義縣,嘉義縣東石鄉屯子頭永屯村1鄰8號附1,23.462718,120.171652
雲龍宮,池府千歲,嘉義縣,嘉義縣東石鄉頂揖小段頂子寮172號,23.4965455,120.2058218
大眾爺廟,大眾爺,嘉義縣,嘉義縣東石鄉掌潭村11鄰白水湖27號附9,23.4239178,120.1653956
慧山岩,觀音佛祖,嘉義縣,嘉義縣梅山鄉碧湖村堀尺嶺九之一號,23.564602,120.624413
禪雲寺,釋迦牟尼佛,嘉義縣,嘉義縣梅山鄉碧湖村溪尾寮六號附二,23.566967,120.640371
圓明寺,釋迦佛祖,嘉義縣,嘉義縣東石鄉塭仔村3鄰69號,23.4400452,120.1733631
福安宮,溫府千歲,嘉義縣,嘉義縣東石鄉溪下村10鄰1號,23.4802778,120.1963889
真武宮,玄天上帝,嘉義縣,嘉義縣梅山鄉詔安寮安靖村四十三號,23.54504,120.578459
永興宮,福德正神,嘉義縣,嘉義縣梅山鄉生毛樹瑞峰村五鄰25之1號,23.5582577,120.6653151
福海宮,李府千歲,嘉義縣,嘉義縣東石鄉塭港村12鄰28號附1,23.4675034,120.1468408
松湖宮,五府千歲,嘉義縣,嘉義縣東石鄉下蔦松蔦松村3鄰44號,23.472837,120.216363
鎮安宮,盧府千歲,嘉義縣,嘉義縣東石鄉網寮村10鄰32號,23.4365422,120.1525427
三法宮,太上老君,嘉義縣,嘉義縣東石鄉下揖村14鄰67之2號,23.483346,120.201794
龍興宮,玄天上帝,嘉義縣,嘉義縣梅山鄉龍眼村九鄰三之一號,23.577185,120.616998
臥龍港代天府,李府千歲,嘉義縣,嘉義縣東石鄉洲仔村4鄰44號之1,23.451541,120.194494
靈慈宮,開台聖王,嘉義縣,嘉義縣東石鄉栗子崙西崙村4鄰97號,23.4261255,120.1881525
鎮安宮,福德正神,嘉義縣,嘉義縣梅山鄉橫山梅北村一號,23.591164,120.54337
嘉義聖靈山修緣湖地母廟,無上虛空地母慈尊,嘉義縣,嘉義縣梅山鄉坑口大南村十鄰一之二號,23.548976,120.561619
玉繩宮,玄天上帝,嘉義縣,嘉義縣梅山鄉大草埔大南村三鄰三十六號,23.5580691,120.554204
開天寺,三佛祖,嘉義縣,嘉義縣東石鄉猿樹村1鄰6之7號,23.458134,120.150107
萬善同居,陳主帥,嘉義縣,嘉義縣東石鄉塭港村1鄰204號,23.471049,120.145914
龍興宮,太子爺,嘉義縣,嘉義縣梅山鄉東興街梅東村二十三鄰一三七號,23.583845,120.561538
正武宮,玄天上帝,嘉義縣,嘉義縣梅山鄉頂雙溪雙溪村三鄰二十二號,23.557402,120.534065
保安宮,邢王,嘉義縣,嘉義縣東石鄉塭港村2鄰,23.4680751,120.1488264
太原宮,廣澤尊王,嘉義縣,嘉義縣梅山鄉麻園寮圳北村三鄰九號,23.576853,120.571911
奉安宮,劉府元帥,嘉義縣,嘉義縣東石鄉掌潭村7鄰白水湖11號附1,23.4239178,120.1653956
慶福宮,金王爺,嘉義縣,嘉義縣東石鄉龍港村13鄰112號,23.4813448,120.1793874
東港溪安宮,城隍爺,嘉義縣,嘉義縣布袋鎮埔仔厝東港里23鄰227號附1,23.376891,120.192483
大眾爺廟,大眾爺公,嘉義縣,嘉義縣布袋鎮考試潭段考試里1鄰579號,23.397494,120.200752
福安宮,池府千歲,嘉義縣,嘉義縣東石鄉東崙村5鄰24號,23.436041,120.196929
水尾玉武宮,玄天上帝,嘉義縣,嘉義縣梅山鄉水尾大南村五鄰二十二號,23.554238,120.54491
福安宮,淵府千歲,嘉義縣,嘉義縣東石鄉塭仔村13鄰5號,23.4400452,120.1733631
聖金壇,天上聖母,嘉義縣,嘉義縣東石鄉網寮村1鄰3之2號,23.4312762,120.1569457
九龍江廟,三千歲,嘉義縣,嘉義縣東石鄉掌潭村9鄰白水湖47號附1,23.4239178,120.1653956
永靈宮,李府千歲,嘉義縣,嘉義縣東石鄉永屯村5鄰43號,23.4620124,120.1745091
后山宮,天上聖母,嘉義縣,嘉義縣東石鄉山寮型厝村3鄰22號附2,23.47765,120.16591
慈安宮,五府千歲,嘉義縣,嘉義縣東石鄉塭仔村5鄰48號,23.4400452,120.1733631
壽天宮,張王,嘉義縣,嘉義縣東石鄉鰲鼓村2鄰64之2號,23.4939944,120.172438
慈惠堂,瑤池金母,嘉義縣,嘉義縣梅山鄉安靖村紹安寮三十二號,23.5531006,120.5769958
泰興岩,觀音佛祖,嘉義縣,嘉義縣梅山鄉太興村四鄰四號,23.5424538,120.634285
保安宮,吳府三千歲,嘉義縣,嘉義縣東石鄉型厝村11鄰136號,23.4800864,120.161817
贊天宮,李王,嘉義縣,嘉義縣東石鄉猿樹村3鄰24號,23.4641647,120.1546002
建安宮,刑天王爺,嘉義縣,嘉義縣東石鄉下揖子寮下揖村2鄰121號附1,23.488077,120.198719
忠義佛堂,明明上帝,嘉義縣,嘉義縣東石鄉副瀨村171之1號,23.4866405,120.1727251
振興宮,福德正神,嘉義縣,嘉義縣梅山鄉公田太和村八鄰七之三號,23.5346339,120.7068459
福靈宮,觀音佛祖,嘉義縣,嘉義縣東石鄉三家村8鄰73之3號,23.4709613,120.1720769
保元宮,玄天上帝,嘉義縣,嘉義縣梅山鄉開元后過山村二十二號,23.586436,120.531749
先天宮,五府千歲,嘉義縣,嘉義縣東石鄉東石村246號,23.4570075,120.1489614
財團法人臺灣省嘉義縣梅山玉虛宮,北極玄天上帝,嘉義縣,嘉義縣梅山鄉中山路梅東村七二號,23.5818388,120.559001
福安宮,福德正神,嘉義縣,嘉義縣中埔鄉中埔村六鄰（在六鄰二十之一號之東）,23.421819,120.532221
安龍府,張府九千歲,嘉義縣,嘉義縣東石鄉頂揖村1鄰13之3號,23.492188,120.21444
金山岩,觀音佛祖,嘉義縣,嘉義縣梅山鄉南勢坑大南村六鄰三號,23.553934,120.549045
祝天宮,鄭成功,嘉義縣,嘉義縣東石鄉海埔村4鄰21號,23.473757,120.188857
萬善廟,萬善爺,嘉義縣,嘉義縣梅山鄉中學路梅東村二之二號,23.5762973,120.5600349
源興宮,池王爺,嘉義縣,嘉義縣梅山鄉幼葉林瑞里村五鄰六十二號,23.5396797,120.6683069
梅山淨舍,阿彌陀佛,嘉義縣,嘉義縣梅山鄉後過山過山村一鄰一號之三,23.5720491,120.5469929
鎮安宮,福德正神,嘉義縣,嘉義縣梅山鄉全仔社太和村六鄰七之一號,23.5401234,120.7177509
大將宮,大將爺,嘉義縣,嘉義縣梅山鄉南榮街梅南村四十之一號,23.5824166,120.5578765
三源福德宮,福德正神,嘉義縣,嘉義縣梅山鄉三源圳南村五鄰路二十之一號,23.5767442,120.5900917
三元宮,三官大帝,嘉義縣,嘉義縣梅山鄉太平村四鄰十三之一號,23.5619373,120.6042747
配天宮,天上聖母,嘉義縣,嘉義縣六腳鄉蒜頭糖廠工廠村122號,23.479446,120.299717
紫極殿,玄天上帝,嘉義縣,嘉義縣六腳鄉港美村100號,23.5284142,120.2886153
鎮武宮,玄天上帝,嘉義縣,嘉義縣新港鄉溪北段溪北村526號,23.510558,120.3364113
財團法人台灣省嘉義縣布袋鎮過溝建德宮,五府千歲,嘉義縣,嘉義縣布袋鎮過溝西勢西安里三鄰三十號,23.4166464,120.1804891
漳武宮,玄天上帝,嘉義縣,嘉義縣梅山鄉安靖村五鄰梓普寮二十四號之一,23.548893,120.584226
新興宮,神農聖帝,嘉義縣,嘉義縣水上鄉大崙村18鄰49號,23.4429596,120.3553197
德興宮,五谷聖帝,嘉義縣,嘉義縣水上鄉頂塗溝塗溝村3鄰18之1號,23.4524144,120.370146
清福宮,清水祖師,嘉義縣,嘉義縣太保市茄苳腳春珠里5鄰（711號）,23.445622,120.320774
玉賢宮,三府千歲,嘉義縣,嘉義縣太保市北新里9鄰中興路一段152號,23.5005502,120.3846978
福德宮,福德正神,嘉義縣,嘉義縣水上鄉柳子林段內溪村260之40號,23.437515,120.42424
奉天宮濟公廟,濟公活佛,嘉義縣,嘉義縣水上鄉崎子頭寬士村25鄰736之1號,23.4561189,120.4283083
義神廟,帥爺,嘉義縣,嘉義縣水上鄉三和村8號,23.4552558,120.4129984
白鶴寺,觀世音菩薩,嘉義縣,嘉義縣水上鄉三界埔國姓村9鄰36號,23.4410529,120.4757399
柳安宮,福德正神,嘉義縣,嘉義縣水上鄉柳新村4鄰柳新段53號,23.426556,120.406134
法雨寺,釋迦牟尼佛,嘉義縣,嘉義縣水上鄉崎子頭寬士村10鄰30號,23.4462882,120.4297955
竹安寺,觀音佛祖,嘉義縣,嘉義縣水上鄉頂寮三和村6鄰14號,23.4579941,120.4145164
千歲宮,觀音佛祖,嘉義縣,嘉義縣水上鄉紅毛寮忠和村6鄰10號,23.413441,120.429667
普竹寺,觀音佛祖,嘉義縣,嘉義縣水上鄉中庄中庄村14鄰11號,23.4213007,120.4381581
福德爺,媽祖,嘉義縣,嘉義縣水上鄉崎子頭寬士村9鄰29號,23.4462882,120.4297955
興一講堂,明明上帝,嘉義縣,嘉義縣水上鄉三界埔三界村13鄰247之7號,23.4256807,120.4678131
協安宮,大伯爺介子推,嘉義縣,嘉義縣水上鄉三界埔國姓村11鄰113號,23.4410529,120.4757399
魚寮東安福宮,尤府千歲,嘉義縣,嘉義縣六腳鄉古林村30之1號,23.484817,120.2265
三主宮,五年王,嘉義縣,嘉義縣水上鄉水頭村10鄰2之3號,23.4501666,120.4336313
副港口宮,天上聖母,嘉義縣,嘉義縣六腳鄉蒜頭村5鄰42號,23.4940741,120.2907983
保安宮,五府千歲,嘉義縣,嘉義縣六腳鄉雙涵村4鄰42號,23.514773,120.30017
朝天宮,天上聖母,嘉義縣,嘉義縣布袋鎮新塭新民里15鄰387號,23.3367885,120.1712052
福安宮,福德正神,嘉義縣,嘉義縣中埔鄉中埔村十鄰80-56號,23.425139,120.522952
永安宮,周府千歲,嘉義縣,嘉義縣六腳鄉三義村10鄰8號,23.520527,120.2907
頂安宮,蕭府大帝,嘉義縣,嘉義縣六腳鄉港尾寮豐美村205號附1,23.53252,120.287002
合興宮,城隍爺,嘉義縣,嘉義縣水上鄉三和村4鄰20號,23.459122,120.409513
奉蓮宮,呂仙祖,嘉義縣,嘉義縣水上鄉三界埔三界村138之2號,23.43293,120.478367
慈聖宮,天上聖母,嘉義縣,嘉義縣六腳鄉溪厝村134之3號,23.4973079,120.2640211
妙光寺,釋迦牟尼佛,嘉義縣,嘉義縣竹崎鄉外埔緞繻村一一之一號,23.5237922,120.5941667
聖安宮,保生大帝,嘉義縣,嘉義縣六腳鄉菕子崙陽村5鄰43號,23.555619,120.305136
靈應公義士廟,靈應公,嘉義縣,嘉義縣水上鄉三鎮路三鎮村8鄰53號,23.4152566,120.3870405
般若精舍,釋迦牟尼佛,嘉義縣,嘉義縣六腳鄉崙子崙陽村33之50號,23.555619,120.305136
真武廟,玄天上帝,嘉義縣,嘉義縣竹崎鄉阿拔泉緞繻村九鄰二十二之一號,23.5240436,120.5997815
奮起湖保安宮,福德正神〈土地公〉,嘉義縣,嘉義縣竹崎鄉中和村八鄰奮起湖八十九之一號,23.5052388,120.695607
振興宮,關帝君,嘉義縣,嘉義縣竹崎鄉無底潭塘興村十三鄰,23.5041029,120.5873139
福安宮,三姓尊王,嘉義縣,嘉義縣水上鄉吳竹街水頭村14鄰38號,23.4300427,120.4048303
文應公,保生大帝,嘉義縣,嘉義縣水上鄉吳竹街水頭村13鄰18巷35號,23.4298807,120.4049389
開山宮,鄭成功,嘉義縣,嘉義縣鹿草鄉鹿草278號附1,23.4010271,120.2685799
碧山岩,觀音佛祖,嘉義縣,嘉義縣竹崎鄉菜堂紫雲村十六鄰九之五號,23.500706,120.541422
新發寺,觀音佛祖,嘉義縣,嘉義縣水上鄉南靖南和村8鄰11號,23.415999,120.384938
協天宮,關聖帝君,嘉義縣,嘉義縣水上鄉後寮南和村9鄰8號,23.412481,120.361236
慈善寺,大寮伯,嘉義縣,嘉義縣鹿草鄉鹿草段1192-0004號,23.4113896,120.3083201
萬善相公,萬善相公,嘉義縣,嘉義縣鹿草鄉鹿草小段鹿草段1007之000號,23.4113896,120.3083201
開台聖王府,鄭成功,嘉義縣,嘉義縣鹿草鄉竹子腳松竹村14鄰144號附1,23.3944078,120.2851521
壽德宮,公王,嘉義縣,嘉義縣竹崎鄉交力坪仁壽村三鄰,23.532117,120.643159
麻箕埔三山國王廟,三山國王,嘉義縣,嘉義縣竹崎鄉麻箕埔鹿滿村六二之一號,23.5022639,120.5346333
奉天岩,觀音佛祖,嘉義縣,嘉義縣竹崎鄉紅南坑緞繻村四鄰二十號,23.541949,120.604787
開天保安宮,開天聖帝,嘉義縣,嘉義縣中埔鄉公館和睦村14鄰22號,23.446252,120.458819
寂光寺,西方三聖,嘉義縣,嘉義縣中埔鄉中正路隆興村9鄰480號,23.4396881,120.5278244
普天宮,趙子龍,嘉義縣,嘉義縣布袋鎮海利街岑海里11鄰26號,23.3824481,120.1514077
玉王宮,玉王千歲,嘉義縣,嘉義縣六腳鄉更寮村7鄰更寮小段304之19及310之2號,23.482142,120.239069
拱隆宮,福德正神,嘉義縣,嘉義縣竹崎鄉中山路竹崎村三鄰五十三之一號,23.523317,120.5510386
開天宮,開天聖祖,嘉義縣,嘉義縣鹿草鄉三角村 11鄰109號,23.4026098,120.3388591
明安宮,邢王爺,嘉義縣,嘉義縣鹿草鄉海豐豐稠村3鄰21之1號,23.4162711,120.2879186
青岩宮,池王爺,嘉義縣,嘉義縣竹崎鄉中興路內埔村五鄰十三號,23.4848198,120.5603264
山西夫子天文宮,文衡聖帝,嘉義縣,嘉義縣中埔鄉和美村二九鄰中山新?四七六之一號,23.4584809,120.4673532
保安宮,鄭成功,嘉義縣,嘉義縣鹿草鄉馬稠後278號附1,23.447882,120.279656
石棹吳鳳廟,吳鳳公,嘉義縣,嘉義縣竹崎鄉石棹中和村十九鄰七之一號,23.4757933,120.703828
真武廟,玄天上帝,嘉義縣,嘉義縣竹崎鄉科底緞繻村十六鄰,23.531907,120.59087
鎮北宮,張姑婆媽,嘉義縣,嘉義縣水上鄉義興村2鄰57號,23.418168,120.420986
南天宮,玄天上帝,嘉義縣,嘉義縣水上鄉塗溝塗溝村7鄰47之1號,23.458891,120.372265
聖港宮,天上聖母,嘉義縣,嘉義縣布袋鎮樹林頭段樹林小段樹林里283號,23.4024104,120.2175951
安天宮,天上聖母,嘉義縣,嘉義縣布袋鎮東安庄光復里43號,23.3745158,120.1694307
財團法人臺灣省嘉義縣布袋鎮過溝建德宮,五府千歲,嘉義縣,嘉義縣布袋鎮西安里3鄰過溝西勢30號,23.4166464,120.1804891
春秋武廟,關聖帝君,嘉義縣,嘉義縣朴子市應菜埔永和里4鄰36之1號,23.4645201,120.235232
池王廟,池府千歲,嘉義縣,嘉義縣六腳鄉潭墘村113號,23.504102,120.27708
楓帝宮,楓樹尊王,嘉義縣,嘉義縣中埔鄉石頭厝裕民村(段五十三之二十號),23.429455,120.512873
萬善公廟,萬善公,嘉義縣,嘉義縣中埔鄉和睦村（和興段二九一號）,23.4513416,120.4639256
永安宮,刑府大人,嘉義縣,嘉義縣六腳鄉蒜頭蒜南村399號,23.4903292,120.2913032
西安宮,福德正神,嘉義縣,嘉義縣新港鄉福德路福德村7鄰94號,23.5569601,120.3437714
護安宮,五府千歲,嘉義縣,嘉義縣布袋鎮埔仔厝東港里120之1號,23.376891,120.192483
紫華宮,觀音佛祖,嘉義縣,嘉義縣水上鄉三界埔國姓村5鄰5之2號,23.4410529,120.4757399
寶豐宮,媽祖,嘉義縣,嘉義縣水上鄉南鄉村76號,23.4114579,120.453948
仁安宮,玄天上帝,嘉義縣,嘉義縣水上鄉內溪內溪村4鄰47號,23.436694,120.42988
義民公正廟,義民公,嘉義縣,嘉義縣水上鄉巷口粗溪村13鄰55之3號,23.434284,120.476591
查仙宮廟,查仙公,嘉義縣,嘉義縣六腳鄉港尾寮港美村2鄰段豐美小段316號,23.5284434,120.289879
碧潭龍湖宮,三代浮佛,嘉義縣,嘉義縣鹿草鄉碧潭村6鄰18號,23.384264,120.297014
坑仔坪福興宮,福德正神,嘉義縣,嘉義縣竹崎鄉坑仔坪和平村六鄰七十九之一號,23.515223,120.546386
財團法人嘉義縣布袋鎮過溝建德宮,五府千歲,嘉義縣,嘉義縣布袋鎮西安里3鄰過溝西勢30號,23.4166464,120.1804891
蕭府大帝殿,蕭府大帝,嘉義縣,嘉義縣布袋鎮振寮里11鄰10之1號,23.3767268,120.1682207
威靈宮,朱王,嘉義縣,嘉義縣六腳鄉占富厝正義村7鄰45號,23.492054,120.253648
廣福宮,三山國王,嘉義縣,嘉義縣新港鄉共和村8鄰後庄38號,23.57167,120.335244
保安宮,保生大帝,嘉義縣,嘉義縣六腳鄉下雙溪正義村11鄰26號,23.481448,120.252524
慈保宮,保生大帝,嘉義縣,嘉義縣竹崎鄉番仔潭義仁村十鄰五之一號,23.5046758,120.5012978
萬善堂,萬善公,嘉義縣,嘉義縣水上鄉新進街水頭村10鄰62巷12弄8號,23.4314318,120.4022179
龍旨宮,關聖帝君,嘉義縣,嘉義縣六腳鄉溪墘厝溪厝村5鄰44號之1,23.495706,120.269636
五王宮,五府千歲,嘉義縣,嘉義縣竹崎鄉中和村奮起湖一二六號,23.5047978,120.6974477
埔岩宮,池府千歲,嘉義縣,嘉義縣竹崎鄉昇平村六鄰頂埔九十六號,23.472885,120.567157
玄保宮,玄天上帝,嘉義縣,嘉義縣太保市太保里145號,23.4620968,120.3331866
鎮安宮,五府千歲,嘉義縣,嘉義縣太保市三塊厝安仁里1鄰1之7號,23.4427112,120.3093228
嘉義縣布袋鎮見龍里金華山堂,觀世音菩薩,嘉義縣,嘉義縣布袋鎮見龍里內田1號,23.382199,120.178335
靜德禪寺,釋迦牟尼佛,嘉義縣,嘉義縣布袋鎮過溝西勢西安里150號,23.4166464,120.1804891
財團法人台灣省嘉義縣布袋鎮見龍里金華山堂,觀世音菩薩,嘉義縣,嘉義縣布袋鎮內田見龍里一號,23.382199,120.178335
紫熙寺,觀音佛祖,嘉義縣,嘉義縣中埔鄉崁腳瑞豐村7鄰43附1號,23.395133,120.538078
東安宮,李府千歲,嘉義縣,嘉義縣布袋鎮東港里10鄰118號,23.376891,120.192483
復興宮,諸府千歲,嘉義縣,嘉義縣新港鄉潭子墘潭大村3鄰16號,23.542128,120.331896
九天宮,關聖帝君,嘉義縣,嘉義縣新港鄉月眉潭月眉村19鄰149號附50,23.524953,120.348944
順天宮,五王爺,嘉義縣,嘉義縣六腳鄉後崩山崩山村7鄰46號,23.504741,120.2309613
南天聖道院,天德聖母,嘉義縣,嘉義縣鹿草鄉馬稠後豐稠村6鄰4之1號,23.447882,120.279656
天奉宮,天上聖母,嘉義縣,嘉義縣竹崎鄉鹿鳴路鹿滿村十二鄰三十二號,23.4982859,120.5333573
千光寺,釋迦牟尼佛,嘉義縣,嘉義縣水上鄉柳鄉村176之6號,23.4372314,120.4181428
明德聖堂,明明上帝,嘉義縣,嘉義縣水上鄉大堀尾大堀村2鄰12之12號,23.4318568,120.3780081
中東宮,木府元帥,嘉義縣,嘉義縣布袋鎮東港里景山段325之1地號,23.3763395,120.1593539
紫碧寺,觀世音菩薩,嘉義縣,嘉義縣中埔鄉和美路和美村26鄰50號,23.4572709,120.4650191
天安宮,盤古聖帝,嘉義縣,嘉義縣中埔鄉後庄和美村13鄰28-36號,23.4521427,120.4624939
武聖宮,關聖帝君,嘉義縣,嘉義縣大林鎮平和街吉林里8鄰32巷2號,23.6011913,120.4557044
鎮安岩,觀音佛祖,嘉義縣,嘉義縣竹崎鄉和平村十二鄰二十七之三號,23.5164114,120.5378
南善寺,觀音菩薩,嘉義縣,嘉義縣竹崎鄉埤堂灣橋村二六鄰六十三號,23.494506,120.495877
准提寺,准提菩薩,嘉義縣,嘉義縣竹崎鄉大坪義隆村頂三之三號,23.50174,120.555479
春川宮,春姑婆,嘉義縣,嘉義縣朴子市黎明路安福里13鄰1之2號,23.4694942,120.2466647
保安宮,五府千歲,嘉義縣,嘉義縣朴子市中正路中正里10鄰171號,23.4658789,120.2437965
竹安亭,五府千歲,嘉義縣,嘉義縣朴子市應菜埔永和里3鄰25之1號,23.4633593,120.2323165
澤山宮,護國尊王,嘉義縣,嘉義縣朴子市鴨母寮竹村里1鄰7之7號,23.4319004,120.2469056
樸靈宮,呂仙祖、樸靈公,嘉義縣,嘉義縣朴子市海通路文化里10鄰116號,23.4638379,120.2398193
長春祠,邱春娘,嘉義縣,嘉義縣布袋鎮新厝仔新厝里4鄰295號附1,23.3868132,120.1726198
護生宮,岑府大使,嘉義縣,嘉義縣中埔鄉庄內富收村9鄰4號,23.444855,120.491857
達天宮,玄天上帝,嘉義縣,嘉義縣中埔鄉金蘭村3鄰16號,23.4400803,120.5065934
無極天仁宮,無極原始大天尊,嘉義縣,嘉義縣中埔鄉石頭厝裕民村2鄰20之11號,23.429455,120.512873
永安宮,張聖真君,嘉義縣,嘉義縣布袋鎮太平路岑海里312巷2之2號,23.3786704,120.1573074
瑤池宮,金母娘娘,嘉義縣,嘉義縣中埔鄉中崙村七鄰（段一六七之二地號）,23.375986,120.5605668
太公廟,姜子牙,嘉義縣,嘉義縣新港鄉中正路福德村16鄰115巷19號,23.559292,120.3454824
民生村福德宮,土地公,嘉義縣,嘉義縣水上鄉忠孝街民生村1鄰1之1號,23.444828,120.435035
三界公廟,三官大帝,嘉義縣,嘉義縣水上鄉巷口粗溪村10鄰47號,23.4443753,120.393831
後寮大眾爺廟,大眾爺,嘉義縣,嘉義縣水上鄉後寮南和村15鄰62號,23.412481,120.361236
松王廟,松樹尊王,嘉義縣,嘉義縣新港鄉月眉潭月眉村16鄰112號,23.51995,120.349081
岑兜廟武聖殿,太師爺,嘉義縣,嘉義縣布袋鎮太平路岑海里5鄰322巷3號,23.378895,120.157262
龍珠宮,九龍三公,嘉義縣,嘉義縣布袋鎮?地仔中安里1鄰1號附3,23.4197592,120.1830558
龍山宮,諸府千歲,嘉義縣,嘉義縣布袋鎮東港里1鄰30號,23.3720867,120.1900069
永順宮,玄天上帝,嘉義縣,嘉義縣水上鄉三界埔國姓村8鄰45號,23.434488,120.480857
大將爺廟,大將爺,嘉義縣,嘉義縣水上鄉市政街水上村1鄰5號,23.428443,120.3985826
隆山宮,太上老君,嘉義縣,嘉義縣水上鄉巷口段三和村36之1地號,23.45459,120.40975
龍鳳宮,圓通自在天尊,嘉義縣,嘉義縣六腳鄉大塗師段塗師村11鄰257號,23.506729,120.283915
德安宮,武德英侯,嘉義縣,嘉義縣六腳鄉竹子腳竹本村15鄰106號,23.5323224,120.2627795
蘇厝村朝安宮,蘇府千歲,嘉義縣,嘉義縣六腳鄉蘇厝寮蘇厝村1鄰84號附11,23.554802,120.2987209
朝聖宮,江元帥,嘉義縣,嘉義縣大林鎮下潭底平林里7鄰26號,23.5934185,120.4563841
元帥府,保儀尊王,嘉義縣,嘉義縣大林鎮排子路西結里段508之1地號,23.612136,120.414719
港保宮,三山國王,嘉義縣,嘉義縣太保市港尾里2鄰港尾20之1號,23.476849,120.363766
東和宮,元帥爺,嘉義縣,嘉義縣太保市東勢寮東勢里2鄰（東勢段330之1地號）,23.4650312,120.3039172
福正忠太子宮,中壇元帥,嘉義縣,嘉義縣中埔鄉頂中下街富收村5鄰68附7號,23.4490184,120.490054
佛方宮,慚愧祖師,嘉義縣,嘉義縣大林鎮大湖湖北里4鄰15號,23.6212779,120.455526
美安宮,保生大帝,嘉義縣,嘉義縣溪口鄉崙尾美北村48八之1號,23.591117,120.382589
龍山巖,釋迦牟尼佛,嘉義縣,嘉義縣大林鎮中坑里芎蕉山17鄰41號,23.5704586,120.5197265
石碼宮,林府元帥,嘉義縣,嘉義縣朴子市雙溪口溪口里7鄰192之1號,23.485361,120.27067
雙溪口福天宮,吳府三千歲,嘉義縣,嘉義縣朴子市雙溪里3鄰29號,23.484518,120.277958
德安宮,五府千歲,嘉義縣,嘉義縣朴子市應菜埔永和里12鄰107之1號,23.4633593,120.2323165
桃花宮,天上聖母,嘉義縣,嘉義縣太保市新埤里4鄰181號,23.4863485,120.3351464
水牛厝玉皇宮,玉皇上帝,嘉義縣,嘉義縣太保市南新里4鄰仁愛路29號,23.496764,120.3880987
古恩宮,五府千歲,嘉義縣,嘉義縣太保市麻寮里中山路二段250號,23.4997874,120.3684953
玉泉寺,關聖帝君,嘉義縣,嘉義縣太保市後潭里15鄰418號,23.4508329,120.3431049
三官大帝廟,三官大帝,嘉義縣,嘉義縣新港鄉西庄村6鄰66號,23.5637166,120.3762869
九玄宮,九天玄女,嘉義縣,嘉義縣六腳鄉塗師村6鄰35之1號,23.4931753,120.517433
興宮寺,觀音佛祖,嘉義縣,嘉義縣竹崎鄉朴子埔灣橋村三十二之一號,23.4931753,120.517433
聖安宮,五顯大帝,嘉義縣,嘉義縣竹崎鄉樟樹坪塘興村賴厝五鄰（段三六四號）,23.4891347,120.5774686
真武宮,玄天上帝,嘉義縣,嘉義縣竹崎鄉水坑沙坑村八鄰六十一號,23.5291634,120.5194232
聖天宮,關聖帝君,嘉義縣,嘉義縣中埔鄉中華路和興村34鄰305巷223-1號,23.4378915,120.4526414
福德宮,福德正神,嘉義縣,嘉義縣中埔鄉石頭厝段一八八之七地號,23.4516627,120.4729495
將軍府,刑府千歲,嘉義縣,嘉義縣中埔鄉頂中下街富收村四鄰六一號,23.4483296,120.4909546
曾文寺七寶塔,地藏王,嘉義縣,嘉義縣大埔鄉大埔村四鄰五十五號,23.2947757,120.5936649
萬仁公廟,萬仁公,嘉義縣,嘉義縣新港鄉中工段中洋村203地號,23.512212,120.369857
西林寺,釋迦牟尼佛,嘉義縣,嘉義縣中埔鄉坪頂中埔村一鄰九號,23.419993,120.537855
德龍宮,邢王,嘉義縣,嘉義縣六腳鄉溪墘厝溪厝村77號,23.495706,120.269636
福德祠,福德正神,嘉義縣,嘉義縣新港鄉南港村4鄰88號,23.551935,120.313402
三王公祠,三王公,嘉義縣,嘉義縣新港鄉大潭村大潭4鄰168號,23.5536605,120.3700351
鎮北殿,北極玄天上帝,嘉義縣,嘉義縣新港鄉潭大村六斗子4鄰6號附1,23.548,120.326625
北極殿,玄天上帝,嘉義縣,嘉義縣大埔鄉大埔村五鄰一三七號,23.2947757,120.5936649
保福宮,女媧娘娘,嘉義縣,嘉義縣太保市梅埔里10鄰71號,23.4593541,120.33302
鎮福宮,天上聖母,嘉義縣,嘉義縣太保市後潭里12鄰470號,23.4445667,120.3412821
福興宮,天上聖母,嘉義縣,嘉義縣太保市田尾里8鄰溪南3號,23.8283395,120.7084089
七主宮,七主王爺,嘉義縣,嘉義縣太保市祥和2路2之1號,23.45766,120.292656
安福宮,三山國王,嘉義縣,嘉義縣太保市管事厝段管事厝小段505地號,23.475747,120.374921
保安宮,保生大帝,嘉義縣,嘉義縣太保市後庄里2鄰18號,23.4700219,120.327188
清水殿,清水祖師,嘉義縣,嘉義縣新港鄉溪北小段溪北段750、751地號,23.510558,120.3364113
保安宮,朱、邢、李府千歲,嘉義縣,嘉義縣新港鄉菜公厝段菜公村355地號,23.53695,120.350954
代天宮,諸府千歲,嘉義縣,嘉義縣新港鄉南崙村崙子1鄰97號,23.591996,120.354551
法音寺,西方三聖佛,嘉義縣,嘉義縣新港鄉登雲路福德村9鄰111巷14號,23.555635,120.3494932
樹德宮,陳聖王,嘉義縣,嘉義縣鹿草鄉後堀村14鄰105號,23.4122707,120.3291365
東嶽殿,地藏王菩薩,嘉義縣,嘉義縣竹崎鄉頂崎腳龍山村六鄰一之一號,23.517778,120.5918539
嘉義世明慈惠堂,西王金母,嘉義縣,嘉義縣竹崎鄉埤堂灣橋村二六鄰二三巷五一之六號〈五間厝段七二五〉,23.494506,120.495877
福安宮,清水祖師,嘉義縣,嘉義縣太保市田尾里2鄰16號,23.4537215,120.3345092
復金真武廟,玄天上帝,嘉義縣,嘉義縣竹崎鄉復金村十一鄰復鼎金五十九號,23.5283539,120.5694503
慈雲淨苑,西方三聖,嘉義縣,嘉義縣竹崎鄉頂笨仔光華村一鄰三之二號,23.482948,120.6806624
真武廟,玄天上帝,嘉義縣,嘉義縣竹崎鄉坑仔坪和平村五鄰一三九號,23.5179688,120.5493193
昇平山,觀音佛祖,嘉義縣,嘉義縣竹崎鄉昇平村十六鄰五十一號,23.469423,120.561644
太子山慈雲寺,觀音佛祖,嘉義縣,嘉義縣竹崎鄉頂坪塘興村九鄰二號之一,23.49856,120.587967
東安宮,城隍,嘉義縣,嘉義縣太保市東勢里8鄰82號,23.4600688,120.333233
聖媽堂,三姑娘,嘉義縣,嘉義縣朴子市鴨母寮竹村里1鄰3之1號旁,23.444791,120.244964
受天宮,北極玄天上帝,嘉義縣,嘉義縣大林鎮中坑里14鄰田寮12號附1,23.594459,120.597985
萬寧宮,保生大帝,嘉義縣,嘉義縣大林鎮沙崙中坑里4鄰176號,23.5678056,120.3046446
北極殿,玄天上帝,嘉義縣,嘉義縣朴子市黎明路安福里11鄰6之1號,23.712061,120.429125
順天宮,"五府千歲,邢府王爺",嘉義縣,嘉義縣朴子市開元路博厚里13鄰448號,23.711981,120.438054
福安宮,五府千歲,嘉義縣,嘉義縣朴子市仁和里1鄰小?榔12之1號,23.722176,120.4426766
谷青岩元亨寺,釋迦牟尼佛,嘉義縣,嘉義縣阿里山鄉樂野村二三一號,23.5839902,120.2329169
無極懿旨天元宮,元始天王,嘉義縣,嘉義縣番路鄉隙頂公田村五鄰七十九號,23.417655,120.651085
福安宮,福德正神,嘉義縣,嘉義縣番路鄉公田段四十之十九地號,23.4436557,120.5908831
義德堂,鄭成功,嘉義縣,嘉義縣鹿草鄉光潭村253之1號,23.526365,120.57796
永泰宮,法主公聖君,嘉義縣,嘉義縣鹿草鄉後寮村4鄰24號,23.3746329,120.1868925
竹崎慈惠堂,王母娘娘,嘉義縣,嘉義縣竹崎鄉水底寮復金村五鄰二之一號,23.526365,120.57796
布袋鎮溪北 鎮北宮,吳府千歲,嘉義縣,嘉義縣布袋鎮埔仔厝東港里85號,23.3746329,120.1868925
太天宮,道德天尊,嘉義縣,嘉義縣新港鄉菜園南港村9鄰13號,23.557926,120.316506
紫雲亭,都天靈聖,嘉義縣,嘉義縣新港鄉咬仔竹菜公村3鄰24號,23.547825,120.348261
福安宮,太子爺,嘉義縣,嘉義縣番路鄉竹山內甕十二鄰(內甕段六三四之十二地號),23.4584185,120.5236716
永興宮,神農聖帝,嘉義縣,嘉義縣溪口鄉柳子溝柳溝村9鄰26號,23.583224,120.417659
嘉義縣大林鎮大林天后宮,媽祖,嘉義縣,嘉義縣大林鎮湖子三村里28之5號,23.612245,120.464541
武天宮,玄天上帝,嘉義縣,嘉義縣太保市後潭里450號,23.4474131,120.3421901
佛寶寺,正法明如來,嘉義縣,嘉義縣竹崎鄉樟樹坪白杞村十二鄰一00號,23.4920548,120.595149
寶天宮,伍年千歲,嘉義縣,嘉義縣新港鄉板頭村13鄰99之1號,23.569117,120.321346
三官大帝廟,三官大帝,嘉義縣,嘉義縣新港鄉潭大村8鄰大客26之1號,23.5328362,120.3237303
嘉應廟,九龍三公,嘉義縣,嘉義縣布袋鎮入船路九龍里2鄰32號,23.3781089,120.1573449
新塭九郎公祠,九郎公神龕,嘉義縣,嘉義縣布袋鎮復興里25鄰669之1號,23.3189712,120.161817
永安宮,諸府千歲,嘉義縣,嘉義縣布袋鎮大寮永安里4鄰117號,23.3715597,120.1846738
震天府廟,五府千歲,嘉義縣,嘉義縣民雄鄉好收豊收村14鄰144號,23.562694,120.450899
慈雲寺,如來佛祖,嘉義縣,嘉義縣番路鄉觸口村四鄰一二二號,23.4399219,120.5998528
天臺殿,玉皇大帝,嘉義縣,嘉義縣溪口鄉疊溪村五鄰十五號,23.6873415,120.4944128
紹徽宮,五府千歲,嘉義縣,嘉義縣義竹鄉新店村4鄰38號,23.3385411,120.1968492
碧安宮,天上聖母,嘉義縣,嘉義縣朴子市牛挑灣梅華里19鄰129之10號,23.4118693,120.2579583
保安宮,五府千歲,嘉義縣,嘉義縣朴子市崁前里10鄰崁前25號,23.440478,120.235451
東天紫微宮,紫微大帝,嘉義縣,嘉義縣太保市埤麻腳埤鄉里1鄰2之1號,23.4866116,120.386584
義竹修緣禪寺,濟公活佛,嘉義縣,嘉義縣義竹鄉六桂村17鄰245之10號,23.3347186,120.2440951
三界公廟,三官大帝,嘉義縣,嘉義縣民雄鄉東勢湖東湖村16鄰159號,23.5489734,120.436214
鎮南宮,騎虎王爺公、土地公,嘉義縣,嘉義縣民雄鄉﹝民南段746地號﹞東榮村26鄰,23.5378901,120.4576861
聖恩宮,天上三聖母(媽祖),嘉義縣,嘉義縣布袋鎮後壁寮振寮里4鄰181號,23.386635,120.1809524
福德宮,福德正神,嘉義縣,嘉義縣布袋鎮貴舍里半月64號,23.436382,120.208866
嘉義縣布袋鎮過溝安溪城隍廟,安溪三城隍爺,嘉義縣,嘉義縣布袋鎮過溝東勢頭東安里4鄰144號,23.415731,120.194733
鹿安宮,諸府千歲,嘉義縣,嘉義縣布袋鎮鹿寮仔考試里6鄰13號,23.397494,120.200752
震安宮,玄天上帝,嘉義縣,嘉義縣中埔鄉頂埔村8鄰11號,23.412274,120.529232
武聖殿,文衡聖帝,嘉義縣,嘉義縣義竹鄉官順村8鄰309號,23.306097,120.184682
慈雲寺,釋迦佛祖,嘉義縣,嘉義縣阿里山鄉香林村二鄰44號,23.5172496,120.8076591
指靈宮,南無濟公禪師,嘉義縣,嘉義縣朴子市溪口里6鄰181之1號,23.4609107,120.249941
代天宮,邢府千歲,嘉義縣,嘉義縣朴子市文化北路文化里8鄰27號,23.464513,120.2412106
三王府,三千歲,嘉義縣,嘉義縣朴子市鴨母寮12鄰471巷59號附1,23.5172496,120.8076591
光正萬教殿,玉皇大天尊,嘉義縣,嘉義縣中埔鄉十塊厝社口村十五鄰十五號之一,23.464513,120.2412106
松王廟,松王、檨王,嘉義縣,嘉義縣新港鄉大潭村19鄰1號,23.552736,120.367613
三仙國王廟,三山國王,嘉義縣,嘉義縣新港鄉董厝共和村1鄰9號,23.561061,120.331252
光天宮,敵天大帝,嘉義縣,嘉義縣新港鄉月眉潭月眉村4鄰56號,23.5208478,120.3527025
涂姓開基祖廟,天上聖母,嘉義縣,嘉義縣朴子市大鄉里3鄰大?榔195號,23.4581618,120.2624729
石車公廟,石車公,嘉義縣,嘉義縣朴子市大葛里11鄰大?榔1之3號附近,23.4578378,120.290984
龍安宮,五府千歲,嘉義縣,嘉義縣朴子市牛挑灣松華里12鄰218號,23.410296,120.252039
聖德堂,聖德元帥,嘉義縣,嘉義縣朴子市苦瓜寮佳禾里1鄰60之1號旁,23.450353,120.257113
福德祠,福德正神,嘉義縣,嘉義縣番路鄉大庄新福村六鄰十四號,23.458475,120.530321
永祿宮,三山國王,嘉義縣,嘉義縣新港鄉中庄村12鄰97號,23.5693129,120.3463103
福德宮,福德正神,嘉義縣,嘉義縣新港鄉段精忠小段大潭村702地號,23.5597912,120.3303338
玄濟宮,玄天上帝,嘉義縣,嘉義縣大林鎮內林里38之1號,23.6097842,120.4890434
德和堂,觀音佛祖,嘉義縣,嘉義縣溪口鄉本廳本厝村5鄰22號,23.579434,120.387785
十方行道堂,觀音大士,嘉義縣,嘉義縣大林鎮上林里10鄰44號附1,23.583734,120.470082
代天宮,玄天上帝,嘉義縣,嘉義縣大林鎮麻園寮上林里10之1號,23.5757397,120.4801629
廣安宮,騎虎尊王,嘉義縣,嘉義縣大林鎮林子前三和里6鄰31號之6,23.601408,120.480644
開元殿,開台尊王,嘉義縣,嘉義縣溪口鄉柴林村1鄰1之2號,23.6037191,120.3747266
玄靈宮,九天玄女,嘉義縣,嘉義縣民雄鄉劉竹仔腳興中村2鄰7之2號,23.530788,120.421894
嘉義縣民雄鄉虎尾寮佛慈宮,南海觀音菩薩,嘉義縣,嘉義縣民雄鄉虎尾寮鎮北村3鄰16之8號,23.577546,120.442657
博安宮,五府千歲,嘉義縣,嘉義縣義竹鄉中平村9鄰28號,23.362695,120.275451
正德寺,觀音菩薩,嘉義縣,嘉義縣番路鄉頂角仔江西村五鄰二十之一號,23.4764902,120.5224945
中興宮,五府千歲,嘉義縣,嘉義縣義竹鄉中平村3鄰50號,23.3578107,120.2792142
福安宮,李府千歲,嘉義縣,嘉義縣義竹鄉東過村9鄰98號,23.3026188,120.2137665
廣興宮,戴大王,嘉義縣,嘉義縣民雄鄉東湖仔松山村10鄰8號,23.548532,120.477597
奉天宮,王爺公,嘉義縣,嘉義縣大林鎮中坑里6鄰7號,23.5877063,120.5029888
福德爺廟,福德爺,嘉義縣,嘉義縣大林鎮中正路吉林里514巷12號(市場內),23.6066891,120.4575517
大林鎮大眾爺公廟,大眾爺,嘉義縣,嘉義縣大林鎮過溝仔平林里58號,23.600615,120.4585533
保安宮,王孫大使,嘉義縣,嘉義縣大林鎮西結里4鄰70號,23.612136,120.414719
善興宮,松樹王,嘉義縣,嘉義縣大林鎮潭墘三村里1鄰9號,23.628731,120.47741
朝天宮,李府千歲,嘉義縣,嘉義縣義竹鄉西過村10鄰350號,23.305571,120.200901
玄明宮,玄天上帝,嘉義縣,嘉義縣民雄鄉頂崙村11鄰1之2號,23.5626242,120.4621658
大使爺廟,大使爺,嘉義縣,嘉義縣民雄鄉覆鼎金北斗村47號,23.522952,120.460964
福德宮,福德正神,嘉義縣,嘉義縣義竹鄉溪洲村11鄰31號,23.392871,120.248012
保生大帝爺廟,保生大帝,嘉義縣,嘉義縣民雄鄉山子腳豊收村20鄰40號,23.561295,120.461474
諦觀精舍,西方三聖,嘉義縣,嘉義縣番路鄉龍美公興村九之二號,23.4047049,120.6497459
財團法人民雄保安宮騎虎王廟,騎虎尊王,嘉義縣,嘉義縣民雄鄉文化路中樂村37號,23.552989,120.429634
鎮安宮,玄天上帝,嘉義縣,嘉義縣民雄鄉十四甲大崎村10鄰22號,23.5221852,120.4749239
民和三三三原靈草屋宮,觀音大士,嘉義縣,嘉義縣義竹鄉牛稠底新富村36之1號,23.319627,120.223589
溪安宮,山西夫子,嘉義縣,嘉義縣水上鄉溪洲村11鄰92號,23.41614,120.395246
聖賢宮,關聖帝君,嘉義縣,嘉義縣大林鎮中林里21鄰下潭底3之3號,23.5905648,120.4600283
安福宮,池府千歲,嘉義縣,嘉義縣朴子市山通路安福里5鄰82號,23.466875,120.2471066
育黎宮,城隍,嘉義縣,嘉義縣朴子市大鄉里3鄰大?榔196號,23.4581618,120.2624729
法雨道場,釋迦牟尼佛,嘉義縣,嘉義縣中埔鄉同仁村二十一鄰柚子宅五十之六號,23.4112718,120.4876141
福東宮,觀音菩薩,嘉義縣,嘉義縣民雄鄉義橋興中村1鄰38之1號,23.5303563,120.4263861
福安祠,大眾爺,嘉義縣,嘉義縣民雄鄉民權路寮頂村13鄰42號之1,23.5600571,120.430952
德興寺,觀音佛祖,嘉義縣,嘉義縣義竹鄉東光村9鄰169號,23.37015,120.249647
奉龍宮,觀音大士,嘉義縣,嘉義縣大埔鄉坪林茄苳村七鄰十二之一號,23.247445,120.630048
三仙宮,三仙國王,嘉義縣,嘉義縣溪口鄉溪明溪北村13鄰6號,23.603203,120.393328
五府千歲廟,黃欽府千歲,嘉義縣,嘉義縣大林鎮排路里9鄰166號,23.6130042,120.4246244
朝興宮,天上聖母,嘉義縣,嘉義縣大林鎮排子路排路里1鄰18號,23.6134249,120.4285017
三寶門保安府,廣澤尊王,嘉義縣,嘉義縣番路鄉下坑村十鄰坑仔內十六號附二,23.4878378,120.5362845
妙法藏菩提寺,千手千眼觀世音菩薩,嘉義縣,嘉義縣番路鄉番路村溪底一之一號,23.462629,120.561414
財團法人臺灣省嘉義縣新港奉天宮,天上聖母,嘉義縣,嘉義縣新港鄉新民路大興村三鄰五十三號,23.5565216,120.3478751
古山宮,其他,嘉義縣,嘉義縣阿里山鄉國有阿里山事業區第一六六號林班地,23.508902,120.802147
普濟宮,明明上帝,嘉義縣,嘉義縣大林鎮三塊厝義和里1鄰157號,23.6077164,120.487597
法隆寺,西方三聖,嘉義縣,嘉義縣太保市後潭里424之12號,23.4494652,120.3415275
千年宮,觀音佛祖,嘉義縣,嘉義縣民雄鄉新庄中央村1鄰30號,23.5349681,120.4039278
耀明宮,池府王爺,嘉義縣,嘉義縣民雄鄉頭橋興南村2鄰99號,23.5226051,120.437696
陳福德爺廟,福德正神,嘉義縣,嘉義縣民雄鄉陳厝寮三興村5鄰47號,23.5572118,120.4786686
集元宮,三元帥,嘉義縣,嘉義縣溪口鄉下員林疊溪村3鄰106之1號,23.591432,120.4424549
鎮亨宮,五年千歲,嘉義縣,嘉義縣溪口鄉林腳村6鄰141號,23.6043589,120.3702047
武英殿,開台尊王,嘉義縣,嘉義縣溪口鄉游西村6鄰45號,23.6172009,120.39347
龍安宮,李府千歲,嘉義縣,嘉義縣朴子市大鄉里14鄰大?榔287號,23.4581618,120.2624729
石碼宮,林府元帥,嘉義縣,嘉義縣朴子市雙溪口雙溪里4鄰37號,23.4847492,120.2792993
龍樹亭,觀音佛祖,嘉義縣,嘉義縣朴子市內厝里7鄰58號,23.470285,120.24448
明德佛寺,釋迦牟尼佛,嘉義縣,嘉義縣大林鎮溝背里6鄰119號,23.618442,120.4861639
靜修精舍,釋迦牟尼佛,嘉義縣,嘉義縣朴子市市東路平和里2鄰33號,23.4622929,120.2463189
仙天宮,林府千歲,嘉義縣,嘉義縣朴子市應菜埔永和里76號,23.4633593,120.2323165
龍隱寺,濟公禪師,嘉義縣,嘉義縣番路鄉觸口村十四鄰一號,23.4436557,120.5908831
嘉義縣番路鄉半天岩紫雲寺,觀音佛祖,嘉義縣,嘉義縣番路鄉岩仔民和村二鄰六號,23.4623272,120.5953387
媽祖廟朝天宮,天上聖母,嘉義縣,嘉義縣大林鎮早知湖北里10鄰19號,23.62025,120.4517706
保安宮,五府千歲,嘉義縣,嘉義縣義竹鄉平溪村5鄰68號,23.349924,120.213056
忠義元帥廟,四十九公,嘉義縣,嘉義縣義竹鄉三腳貓埤前村12鄰2附3號,23.350542,120.228358
寶林禪寺,"三寶佛,觀世音菩薩",嘉義縣,嘉義縣民雄鄉後山仔松山村8鄰38之2號,23.540941,120.502299
檨仔王廟,檨仔王,嘉義縣,嘉義縣民雄鄉菁埔村130號,23.558176,120.397438
廣安宮,三山國王,嘉義縣,嘉義縣民雄鄉江厝店興中村4鄰12號,23.5244025,120.4217402
保安宮,保生大帝,嘉義縣,嘉義縣民雄鄉雙福村7鄰60號,23.5342869,120.4420628
萬善堂,萬善公,嘉義縣,嘉義縣義竹鄉過路子段過路小段11號,23.3052406,120.2066232
鳳山宮,廣澤尊王,嘉義縣,嘉義縣義竹鄉溪洲村7鄰20之1號,23.3905252,120.2427586
保安宮,岳飛元帥,嘉義縣,嘉義縣義竹鄉五厝村2鄰81號,23.356771,120.273391
保安宮,保生大帝,嘉義縣,嘉義縣水上鄉店興街水上村6鄰152巷16號,23.4297179,120.3947992
龍山寺,池府千歲,嘉義縣,嘉義縣水上鄉頂過溝大堀村12鄰19號,23.4307788,120.3709521
聖安宮,天上聖母,嘉義縣,嘉義縣水上鄉柳子林柳林村192之45號,23.433262,120.417495
嘉應宮,九龍三公,嘉義縣,嘉義縣義竹鄉北華村9鄰101號,23.3492366,120.1964522
福德爺廟,福德正神,嘉義縣,嘉義縣民雄鄉好收豊收村16鄰73號之10,23.5578155,120.4406318
順天宮,五府千歲,嘉義縣,嘉義縣民雄鄉田中央中央村12鄰77號,23.5349681,120.4039278
財團法人嘉義縣民雄保安宮騎虎王廟,,嘉義縣,嘉義縣民雄鄉文化路中樂村三十七號,23.552989,120.429634
振寮宮,諸府千歲,嘉義縣,嘉義縣布袋鎮後壁寮振寮里142號,23.386635,120.1809524
王天宮,王府元帥,嘉義縣,嘉義縣布袋鎮溪墘段小段424地號(菜舖里8鄰),23.4024104,120.2175951
東宮廟,太子爺,嘉義縣,嘉義縣布袋鎮後寮路興中里48號,23.3790576,120.158438
保安宮,池王爺,嘉義縣,嘉義縣中埔鄉司公?和睦村1鄰3附5號,23.44895,120.475948
布袋福安壇淨慈寺,濟公,嘉義縣,嘉義縣布袋鎮考試潭段考試小段109地號,23.3999119,120.2003197
武安宮,康府千歲,嘉義縣,嘉義縣中埔鄉樹頭埔義仁村十五鄰(段424號),23.446641,120.5227
受鎮宮,玄天上帝,嘉義縣,嘉義縣阿里山鄉香林村二鄰四十五號,23.5176356,120.8106112
裕民紫竹寺,觀音佛祖,嘉義縣,嘉義縣中埔鄉石頭厝裕民村四鄰四十一之三號,23.431253,120.510933
金天宮,玄天上帝,嘉義縣,嘉義縣中埔鄉沄水村十四鄰竹頭崎六十號,23.3979381,120.5222139
吳鳳廟,吳鳳公,嘉義縣,嘉義縣中埔鄉社口村二十三鄰二十二號,23.4439372,120.5437532
三祝宮,天上聖母,嘉義縣,嘉義縣水上鄉三界村9鄰196號,23.426079,120.472259
天仙禪寺,釋迦牟尼佛,嘉義縣,嘉義縣民雄鄉陳厝寮三興村2鄰18之5號,23.548532,120.477597
保安宮,保生大帝,嘉義縣,嘉義縣民雄鄉福權村3鄰26號,23.5651506,120.4126088
進興宮,謝府元帥,嘉義縣,嘉義縣水上鄉大堀尾大堀村2鄰12號,23.4318568,120.3780081
福安宮,五府千歲,嘉義縣,嘉義縣太保市過溝里10鄰瓦厝26號,23.4915465,120.3534798
福天宮,玄天上帝,嘉義縣,嘉義縣太保市頂港子墘安仁里5鄰10號,23.445113,120.295487
福安宮,福德正神,嘉義縣,嘉義縣六腳鄉大塗師塗師村段65號,23.506612,120.282863
玄安廟,玄天上帝,嘉義縣,嘉義縣六腳鄉古林段古林小段古林村1鄰156號,23.484817,120.2265
代天府,五府千歲,嘉義縣,嘉義縣六腳鄉港美村84之1號,23.5323152,120.2945362
金林寺,觀音佛祖,嘉義縣,嘉義縣大林鎮溝背里13鄰281號,23.6139657,120.4874407
保安宮,保生大帝,嘉義縣,嘉義縣大林鎮中林中林里15鄰105號,23.5983429,120.4687723
奉安宮,王府大使,嘉義縣,嘉義縣溪口鄉天赦美南村10鄰14之4號,23.586207,120.3742529
妙蓮禪寺,三寶佛,嘉義縣,嘉義縣水上鄉下菜園義興村8鄰15之1號,23.419607,120.414659
寶山寺,釋迦牟尼佛,嘉義縣,嘉義縣大林鎮中坑里17鄰芎蕉山15號,23.564617,120.51628
厝子保生宮,保生大帝,嘉義縣,嘉義縣溪口鄉厝子本厝村15鄰9之2號,23.567219,120.402193
慧光寺,釋迦牟尼佛,嘉義縣,嘉義縣朴子市梅華里16鄰153之10號,23.4098966,120.2555848
德安宮,保生大帝,嘉義縣,嘉義縣朴子市德興里1鄰新吉庄4號,23.4719635,120.2648688
福德宮,福德正神,嘉義縣,嘉義縣水上鄉龍德村1鄰12號,23.4267709,120.3867834
星拱殿,玄天上帝,嘉義縣,嘉義縣水上鄉下寮村3鄰鴿溪寮24號,23.456825,120.420818
新福宮,公子爺,嘉義縣,嘉義縣朴子市新寮里6鄰新寮10號,23.451703,120.239341
巡天宮,五府千歲,嘉義縣,嘉義縣朴子市順天里7鄰南通路三段916號,23.4668446,120.242055
玄天宮,玄天上帝,嘉義縣,嘉義縣六腳鄉六斗尾六斗村12號,23.543102,120.294839
娘媽堂,娘媽,嘉義縣,嘉義縣六腳鄉灣內灣南村8鄰8號,23.5001771,120.3123533
鎮安宮,五年千歲,嘉義縣,嘉義縣朴子市下竹圍竹圍里一鄰一號,23.460263,120.245926
順天宮,五王爺,嘉義縣,嘉義縣六腳鄉六腳村56號,23.5058313,120.2530191
五安宮,薛王爺,嘉義縣,嘉義縣六腳鄉蒜頭村13鄰187之20號,23.4940741,120.2907983
慈安宮,觀音佛祖,嘉義縣,嘉義縣竹崎鄉柑仔宅光華村五鄰二三之一號,23.466099,120.656081
玄龍寺,釋迦牟尼佛,嘉義縣,嘉義縣竹崎鄉灣橋村二八五號,23.4966663,120.5038159
苦竹寺,觀音佛祖,嘉義縣,嘉義縣水上鄉柳林村5鄰45號,23.4333499,120.4173047
義民廟,義民三公,嘉義縣,嘉義縣水上鄉大崙村18鄰48之5號,23.4457239,120.3608455
保安宮,池府千歲,嘉義縣,嘉義縣義竹鄉頭竹村6鄰70號,23.336116,120.231072
上帝爺廟,玄天上帝,嘉義縣,嘉義縣民雄鄉葉子寮東興村5鄰44號,23.562817,120.498252
三元帥廟,三元帥,嘉義縣,嘉義縣民雄鄉頂崙村8鄰26之1號,23.5667643,120.4400839
保安宮,李府千歲,嘉義縣,嘉義縣義竹鄉西過村2鄰491號,23.3033829,120.2004059
嘉義縣民雄鄉福興宮,福德正神,嘉義縣,嘉義縣民雄鄉建國路一段東榮村8鄰31巷25之5號,23.554765,120.433633
觀音寺廟,觀世音,嘉義縣,嘉義縣民雄鄉大丘園大崎村5鄰9號,23.5273988,120.4665748
武忠宮,玄天上帝爺,嘉義縣,嘉義縣水上鄉檳榔樹角忠和村3鄰17號,23.421517,120.443067
保安宮,五府千歲,嘉義縣,嘉義縣鹿草鄉竹山村193號,23.3946292,120.287535
香光寺,觀世音菩薩,嘉義縣,嘉義縣竹崎鄉溪州內埔村十七鄰四十九號之一,23.48721,120.554993
華封堂,里主尊王,嘉義縣,嘉義縣鹿草鄉施家村10鄰41號,23.39321,120.305741
余慈廟,余慈爺公,嘉義縣,嘉義縣鹿草鄉後寮村8鄰60之1號,23.4343073,120.3238079
龍山岩,觀世音菩薩,嘉義縣,嘉義縣竹崎鄉過坑龍山村十六鄰十七號,23.515581,120.57066
光祿廟,伏魔公,嘉義縣,嘉義縣竹崎鄉湖底復金村十六鄰十之一號,23.541995,120.561299
塘下寮武當山廟,玄天上帝,嘉義縣,嘉義縣竹崎鄉塘下寮塘興村十四之一號,23.494339,120.569485
無極天大威殿,神龍仙姑,嘉義縣,嘉義縣六腳鄉下雙溪正義村16鄰383之1號,23.481448,120.252524
玄天宮,玄天上帝,嘉義縣,嘉義縣六腳鄉魚寮村62號,23.5176492,120.2489722
代天府,池府千歲,嘉義縣,嘉義縣六腳鄉三義村78號,23.520606,120.287155
大天宮,神農聖帝,嘉義縣,嘉義縣竹崎鄉獅埜村十四鄰獅仔頭段九十一號,23.524292,120.506204
保安宮,福德正神,嘉義縣,嘉義縣竹崎鄉中和村永和,23.4585051,120.6846312
凌雲岩,觀音佛祖,嘉義縣,嘉義縣竹崎鄉樟樹坪文峰村段二六七號,23.5004285,120.617113
進福宮,福德正神,嘉義縣,嘉義縣竹崎鄉竹崎村民生村酒店(和平段一三七五地號),23.5181215,120.5462471
圓山宮,王孫大使,嘉義縣,嘉義縣鹿草鄉鹿草西井村1鄰150號,23.4134025,120.3065669
晨興廟,上帝爺,嘉義縣,嘉義縣竹崎鄉盧厝挖和平村十六鄰十八之一號,23.5179688,120.5493193
慈山岩皇德宮寺,三清道祖,嘉義縣,嘉義縣竹崎鄉昇平村九鄰頂埔一0九號之一,23.472885,120.567157
三水宮,順天聖母,嘉義縣,嘉義縣竹崎鄉義仁村九鄰坪頂三十五之一號,23.5046758,120.5012978
忠興宮,中壇元帥,嘉義縣,嘉義縣水上鄉中庄中庄村12鄰296附1號,23.4213007,120.4381581
正興寺,觀音佛祖,嘉義縣,嘉義縣水上鄉下寮村5鄰49號,23.4506752,120.4082628
靈應公廟,靈應公,嘉義縣,嘉義縣水上鄉柳子林柳鄉村1鄰191號,23.4382189,120.4176983
護安宮,天上聖母,嘉義縣,嘉義縣六腳鄉蒜頭蒜東村226號,23.4917327,120.2950895
德安宮,五王爺,嘉義縣,嘉義縣六腳鄉林內古林村112號,23.5323224,120.2627795
鍾福宮,五府千歲,嘉義縣,嘉義縣鹿草鄉毛蟹行三角村21鄰14號,23.4050055,120.3370883
保安宮,保生上帝,嘉義縣,嘉義縣竹崎鄉許厝師埜村八鄰八之一號,23.524292,120.506204
萬善堂,黑川伯公,嘉義縣,嘉義縣朴子市雙溪口溪口里1鄰127之1號,23.4769925,120.2772325
吉安寺,通天教主,嘉義縣,嘉義縣朴子市吳竹子腳德家里3鄰21號,23.43034,120.24746
敦睦宮,天僊伍帝,嘉義縣,嘉義縣朴子市崁後里5鄰崁後45之1號,23.4453955,120.2292801
德圓宮,神農帝君,嘉義縣,嘉義縣水上鄉二重溝大崙村17鄰12號,23.4474605,120.3602776
璿宿上天宮,天上聖母,嘉義縣,嘉義縣水上鄉中和路水上村5鄰233號,23.4300579,120.398572
奉安宮,城隍爺,嘉義縣,嘉義縣水上鄉水上村9鄰78號,23.432943,120.3983459
先代公廟,先代公,嘉義縣,嘉義縣水上鄉大堀尾大堀村3鄰段348號,23.4318462,120.378592
廣福宮,三山國王,嘉義縣,嘉義縣鹿草鄉龜佛山竹山村11鄰11號,23.3974267,120.2707743
新安宮,保生大帝,嘉義縣,嘉義縣鹿草鄉鹿東村9鄰24之3號,23.422711,120.316145
聖濟宮,濟公活佛,嘉義縣,嘉義縣中埔鄉鹽館村11鄰下仔19號,23.429427,120.5402
魍港太聖宮,天上聖母,嘉義縣,嘉義縣布袋鎮好美里10鄰132號,23.352782,120.1416089
洝海宮,天上聖母,嘉義縣,嘉義縣布袋鎮好美里29號,23.3388259,120.137788
保安宮,真武大帝,嘉義縣,嘉義縣布袋鎮考試潭考試里3鄰1號,23.3999119,120.2003197
聖善寺,釋迦牟尼佛,嘉義縣,嘉義縣朴子市大鄉里22鄰大?榔253之32號,23.465708,120.2573609
三福宮,福德正神,嘉義縣,嘉義縣竹崎鄉竹崎段四0九之三七號,23.5097319,120.5509636
順聖宮,天上聖母,嘉義縣,嘉義縣水上鄉新厝仔三和村2鄰127之3號,23.4542354,120.408975
靜德寺,釋迦牟尼佛,嘉義縣,嘉義縣水上鄉三界埔三界村218號,23.4282119,120.4702894
仁天宮,五府千歲,嘉義縣,嘉義縣中埔鄉田寮仔義仁村14之2號,23.446641,120.5227
見龍宮,五府千歲,嘉義縣,嘉義縣布袋鎮內田見龍里14鄰2之4號,23.382199,120.178335
德雲寺,觀音佛祖,嘉義縣,嘉義縣中埔鄉社口村5鄰內埔43號,23.437824,120.571616
新塭嘉應廟,九龍三公,嘉義縣,嘉義縣布袋鎮復興里17鄰81號,23.3189712,120.161817
大興宮,保生大帝,嘉義縣,嘉義縣新港鄉中正路大興村12鄰73號,23.5573858,120.3465669
武聖宮,關聖帝君,嘉義縣,嘉義縣布袋鎮中山路岑海里二八九號,23.379578,120.1499279
靈光禪寺,地藏王菩薩,嘉義縣,嘉義縣中埔鄉下厝仔隆興村十四鄰二十七之六號,23.434006,120.522197
福德爺廟,福德正神,嘉義縣,嘉義縣新港鄉海瀛村海豐子段海豐小段9鄰966之1號,23.575312,120.366123
歲化宮,陳聖王宮,嘉義縣,嘉義縣布袋鎮廈厝西安里63號,23.4143934,120.1796292
卿雲廟,諸府千歲,嘉義縣,嘉義縣布袋鎮龍江里300號,23.393765,120.16729
順天宮,天上聖母,嘉義縣,嘉義縣中埔鄉竹頭崎沄水村11鄰19號,23.3923982,120.5199163
聖山宮,山有神君,嘉義縣,嘉義縣布袋鎮東港東港里9鄰102號附9,23.376891,120.192483
順天宮,天上聖母,嘉義縣,嘉義縣鹿草鄉麻豆店下麻村5鄰5號之16號,23.4073289,120.3449414
山知崙奉天宮,媽祖,嘉義縣,嘉義縣竹崎鄉山知崙義隆村四鄰二七之九號,23.5024602,120.5636136
城隍廟,城隍爺,嘉義縣,嘉義縣鹿草鄉重寮村17鄰96號,23.3945157,120.3158873
福興宮,福德正神,嘉義縣,嘉義縣竹崎鄉鹿滿村十四鄰,23.5030161,120.5307881
君璉堂,天上聖母,嘉義縣,嘉義縣水上鄉十一指厝龍德村5鄰53之6號2樓,23.4261849,120.392587
新塭城隍廟,安海三城隍,嘉義縣,嘉義縣布袋鎮新塭新民里342號,23.336016,120.162142
金王公廟,金王,嘉義縣,嘉義縣朴子市大鄉里8鄰大?榔238號之1號旁,23.4534686,120.2613573
保安宮,真武大帝,嘉義縣,嘉義縣布袋鎮考試里3鄰1號,23.3991652,120.2009154
義安宮,池府千歲,嘉義縣,嘉義縣中埔鄉中正路義仁村七三０號,23.4254402,120.5234767
長安宮,玄天上帝,嘉義縣,嘉義縣中埔鄉安家厝義仁村8鄰7-1號,23.445424,120.520678
龍門福興宮,福德正神,嘉義縣,嘉義縣中埔鄉龍門村九鄰,23.420621,120.5091977
慈安宮,觀音佛祖,嘉義縣,嘉義縣中埔鄉同仁村十八鄰二十之一號,23.4196477,120.4976768
寶月宮,謝府元帥,嘉義縣,嘉義縣新港鄉月眉潭月潭村16鄰299號,23.524953,120.348944
嘉義縣中埔鄉三賢宮,三山國王,嘉義縣,嘉義縣中埔鄉復收村興化二十三鄰六0之二號,23.4442854,120.4708281
六興宮,天上聖母,嘉義縣,嘉義縣新港鄉溪北村9鄰溪北65號,23.5105982,120.3365175
玄帝宮,玄天上帝,嘉義縣,嘉義縣中埔鄉下厝仔隆興村12鄰二號,23.434006,120.522197
新港法華寺,千手觀音,嘉義縣,嘉義縣新港鄉古民街宮前村13鄰8巷1號之18,23.553331,120.3491032
萬善公廟,萬善公,嘉義縣,嘉義縣新港鄉大客潭大村10鄰25之1號,23.53292,120.32841
保安宮,保生大帝,嘉義縣,嘉義縣新港鄉海瀛村潭底子7鄰6號附5,23.567713,120.36285
鎮安宮,林府千歲,嘉義縣,嘉義縣中埔鄉中埔村4鄰19之1號,23.429427,120.5402
鎮天宮,朱府千歲,嘉義縣,嘉義縣布袋鎮新南路岑海里6號,23.3776906,120.1547141
清山寺,觀音佛祖,嘉義縣,嘉義縣中埔鄉下庄仔鹽館村9鄰7號,23.429427,120.5402
能仁寺,釋迦牟尼佛,嘉義縣,嘉義縣中埔鄉溪洲仔鹽館村1鄰5號,23.429427,120.5402
海國宮,五府千歲,嘉義縣,嘉義縣布袋鎮新岑里6鄰81之1號,23.3833593,120.1707591
慈聖宮,觀音佛祖,嘉義縣,嘉義縣中埔鄉同仁村六鄰六十三之一號,23.4196477,120.4976768
精忠廟,岳武穆王,嘉義縣,嘉義縣新港鄉大潭村10鄰89號,23.5536605,120.3700351
永興宮,保生大帝,嘉義縣,嘉義縣新港鄉三間厝三間村3鄰36號,23.5218513,120.3857555
福德祠,福德正神,嘉義縣,嘉義縣新港鄉西庄村西庄2鄰105號附1,23.56354,120.378308
玄聖宮,"玄天上帝,關聖帝君",嘉義縣,嘉義縣新港鄉埤子村埤子頭1鄰段219號,23.588367,120.365817
開凰宮,池府千歲,嘉義縣,嘉義縣中埔鄉深坑村十九鄰,23.3901263,120.5077582
保壽宮,保生大帝,嘉義縣,嘉義縣新港鄉海瀛村海豐子9鄰段297號,23.572414,120.366373
關帝廟,關帝爺,嘉義縣,嘉義縣水上鄉粗溪村8鄰119號,23.434612,120.398138
龍德宮,謝府元帥,嘉義縣,嘉義縣水上鄉龍德村1鄰10號,23.425209,120.387244
中埔村萬善祠,萬善公,嘉義縣,嘉義縣中埔鄉中埔村15鄰161附7號,23.4255769,120.5227535
安和宮,天上聖母,嘉義縣,嘉義縣新港鄉番婆安和村6鄰111號,23.516083,120.310612
水月庵,觀世音菩薩,嘉義縣,嘉義縣新港鄉頂菜園共和村6鄰1號,23.56261,120.323767
聖玄宮,北極玄天真武上帝,嘉義縣,嘉義縣番路鄉下坑村菜公店121號,23.463593,120.554266
慈雲寺,觀音佛祖,嘉義縣,嘉義縣鹿草鄉頂半天下麻村7鄰10號,23.4206481,120.352052
三寶山靈嚴禪寺,釋迦牟尼佛,嘉義縣,嘉義縣竹崎鄉桃源村十三鄰一四七號,23.4746728,120.603016
廣福宮,玄天上帝,嘉義縣,嘉義縣竹崎鄉金獅寮金獅村十一鄰三十二號,23.515899,120.605589
鳳山宮,武德英侯,嘉義縣,嘉義縣六腳鄉灣內灣北村11鄰191號,23.503433,120.306761
雲龍宮,五府千歲,嘉義縣,嘉義縣鹿草鄉光潭村6鄰181號,23.3750482,120.286511
福興宮,福德正神,嘉義縣,嘉義縣竹崎鄉崎腳灣橋村二十八鄰一七一之一號,23.4940326,120.4928649
德源禪寺,釋迦牟尼佛,嘉義縣,嘉義縣竹崎鄉下寮仔義仁村三鄰四十一號,23.4971095,120.5122331
新興宮,康元帥,嘉義縣,嘉義縣六腳鄉新厝六斗村28號,23.542811,120.2863099
五福宮,天遷五帝,嘉義縣,嘉義縣六腳鄉蘇厝寮蘇厝村6鄰143之10號,23.5575889,120.2984659
泰安宮,五谷聖帝,嘉義縣,嘉義縣鹿草鄉鹿東村227號,23.422711,120.316145
興洲宮,莆府千歲,嘉義縣,嘉義縣竹崎鄉內埔村十五鄰溪洲路二十七號,23.4851122,120.5588831
慧明社醒善堂,關聖帝君,嘉義縣,嘉義縣太保市中山路南新里3鄰1段62號,23.495638,120.387712
清雲宮,清水祖師,嘉義縣,嘉義縣太保市南新里11鄰中山路一段68巷15號,23.4985294,120.3810371
西佛寺,釋迦牟尼佛,嘉義縣,嘉義縣大埔鄉草嶺西興村五號之十號,23.261478,120.587496
心悟寺,釋迦牟尼佛,嘉義縣,嘉義縣大埔鄉雙溪和平村六鄰九號,23.301999,120.5990809
中坑大眾萬善堂,大眾爺,嘉義縣,嘉義縣大林鎮沙崙中坑里4鄰114之1號,23.584991,120.493888
福濟宮,七星娘娘,嘉義縣,嘉義縣太保市太保里7鄰150號,23.4627107,120.3334318
福安宮,福德正神,嘉義縣,嘉義縣太保市北新里溪底寮28號附1,23.50649,120.401616
東興廟,池府千歲,嘉義縣,嘉義縣新港鄉大興路宮後村71號,23.5570502,120.3485033
保安宮,三山國王,嘉義縣,嘉義縣太保市港尾里7鄰魚寮8號,23.4824756,120.3521286
聖恩宮,觀音三菩薩,嘉義縣,嘉義縣太保市埤鄉里3鄰埤麻腳53號,23.4857096,120.3892613
過溝保安宮,陳奶夫人陳靖姑,嘉義縣,嘉義縣布袋鎮過溝東勢頭187號,23.4148707,120.181852
泗洲佛祖寺,泗洲文佛,嘉義縣,嘉義縣中埔鄉客庄灣潭村十六鄰十五附一號,23.428047,120.556107
福仙宮,水仙尊王,嘉義縣,嘉義縣中埔鄉鹽館段二三二之七號,23.429427,120.5402
水仙宮,三官大帝,嘉義縣,嘉義縣新港鄉舊南港南港村5鄰58號,23.5618626,120.3086863
王爺廟,諸府千歲,嘉義縣,嘉義縣新港鄉南港村大崙12鄰5號,23.551935,120.313402
玄明宮,玄天上帝,嘉義縣,嘉義縣大埔鄉大埔永樂村二鄰段六五七、六五八號,23.2987565,120.5908303
白雲寺,觀音佛祖,嘉義縣,嘉義縣中埔鄉橫坑頂埔村1鄰1號,23.405808,120.5400067
安南府,張李莫府千歲,嘉義縣,嘉義縣布袋鎮新厝里81之1號,23.3833593,120.1707591
義靈宮,關聖帝君,嘉義縣,嘉義縣中埔鄉社口村十五鄰（段六一八號）,23.439397,120.538924
德雲寺,觀音佛祖,嘉義縣,嘉義縣中埔鄉社口村五鄰內埔四十三號,23.437824,120.571616
鼎新宮,天上聖母,嘉義縣,嘉義縣太保市過溝里1鄰過溝9號,23.4980784,120.3605458
新塭大眾爺廟,大眾爺,嘉義縣,嘉義縣布袋鎮新民段481、482地號(新民里18鄰),23.3350836,120.161817
鎮海宮,董元帥爺,嘉義縣,嘉義縣布袋鎮埔仔厝東港里4號,23.3720867,120.1900069
清華祠,陳蕊娘,嘉義縣,嘉義縣布袋鎮新厝仔新厝里13鄰65附20號,23.3862014,120.1729084
聖林宮,城隍爺,嘉義縣,嘉義縣布袋鎮樹林頭樹林里4鄰29之1號,23.4034391,120.2195665
紫竹寺,觀音佛祖,嘉義縣,嘉義縣中埔鄉灣潭村十鄰五號,23.417967,120.578304
奉山龍鳳堂,順天聖母,嘉義縣,嘉義縣新港鄉南港南港村8鄰185之1號,23.5618626,120.3086863
補天宮,女媧娘娘,嘉義縣,嘉義縣新港鄉福德路福德村19鄰140巷7之1號,23.5564144,120.3460879
北極宮,玄天上帝,嘉義縣,嘉義縣太保市崙頂里4鄰21號,23.4543834,120.3323959
懷濟堂,觀音佛祖,嘉義縣,嘉義縣新港鄉潭子墘潭大村2鄰10之4號,23.542128,120.331896
長天宮,天上聖母,嘉義縣,嘉義縣新港鄉板頭厝板頭村4鄰9號,23.5656306,120.3216471
代天府,五府千歲,嘉義縣,嘉義縣新港鄉中正路大興村14鄰115巷10號,23.5593027,120.3460268
互助福德宮,福德正神,嘉義縣,嘉義縣大林鎮互助社區大美里17鄰13巷34弄35之2號,23.5997,120.512657
中林福德爺廟,福德爺,嘉義縣,嘉義縣大林鎮中林里20鄰126號,23.5983429,120.4687723
朝傳宮,天上聖母,嘉義縣,嘉義縣大林鎮甘蔗崙明和里3鄰72號,23.6093752,120.4463637
保安宮,玄天上帝,嘉義縣,嘉義縣大林鎮林子頭三和里1鄰12號,23.6001395,120.4913132
紫玄保宮,玄天上帝,嘉義縣,嘉義縣大林鎮下埤頭明華里12鄰83號,23.596953,120.435216
昭慶禪寺,釋迦牟尼佛,嘉義縣,嘉義縣大林鎮中正路明華里41號,23.596886,120.4462677
天宋宮,天宋媽,嘉義縣,嘉義縣溪口鄉牛埔寮游東村14鄰1號,23.622752,120.406754
安林宮,田都元帥爺,嘉義縣,嘉義縣大林鎮頂員林上林里10鄰44號之1,23.5814524,120.472068
大美濟公院,濟公活佛,嘉義縣,嘉義縣大林鎮大埔美大美里11鄰208號,23.6007399,120.5048298
保安宮,保生大帝,嘉義縣,嘉義縣太保市舊埤里13鄰126號,23.4616215,120.3343973
水虞厝代天府,五府千歲,嘉義縣,嘉義縣太保市仁愛路南新里3鄰116巷3號,23.496764,120.3880987
泰寧宮,天上聖母,嘉義縣,嘉義縣大林鎮大埔美大美里14鄰141號,23.6007303,120.5047675
萬善廟,福德正神,嘉義縣,嘉義縣朴子市南通路竹圍里16鄰三段386號,23.4574466,120.2433867
金虛宮,玄天上帝,嘉義縣,嘉義縣大林鎮湖子三村里7鄰16之3號,23.617085,120.467568
天武宮,玄天上帝,嘉義縣,嘉義縣大林鎮橋子頭三村里3鄰7號,23.624286,120.46769
天公廟,無極老母明明上帝,嘉義縣,嘉義縣溪口鄉柴林村33之一號,23.606515,120.369708
慈覺堂,西王金母,嘉義縣,嘉義縣溪口鄉厝子本厝村3鄰30之3號,23.567219,120.402193
安霞宮,開漳聖王,嘉義縣,嘉義縣大林鎮仁愛路西林里9鄰2號,23.6031276,120.4548289
保聖宮,保生大帝,嘉義縣,嘉義縣溪口鄉柳溝村16鄰36之1號,23.5767314,120.4137976
慈濟宮,保生大帝,嘉義縣,嘉義縣溪口鄉游東村10鄰73號,23.620138,120.40558
聖福宮,福德正神,嘉義縣,嘉義縣朴子市大鄉里17鄰大?榔466號,23.4581618,120.2624729
北天宮,玄天上帝,嘉義縣,嘉義縣朴子市新庄里1鄰新庄10號,23.4230437,120.2666093
城隍宮,城隍,嘉義縣,嘉義縣朴子市東安寮佳禾里7鄰10號,23.446566,120.252612
永安宮,五府王爺,嘉義縣,嘉義縣朴子市應菜埔永和里8鄰79之2號,23.4633593,120.2323165
客庄義興宮,土地公婆,嘉義縣,嘉義縣番路鄉番路民和村客庄八鄰（段二二三之三號）,23.4584844,120.5841681
財團法人台灣省嘉義縣朴子配天宮,天上聖母,嘉義縣,嘉義縣朴子市開元路開元里六鄰一一八號,23.4678564,120.2451789
大華宮,吳府千歲,嘉義縣,嘉義縣朴子市南勢竹南竹里3鄰29號,23.4145985,120.2426185
鎮安宮,觀音佛祖,嘉義縣,嘉義縣大林鎮水碓三和里10鄰44號,23.603931,120.471178
天德寶宮,關聖帝君,嘉義縣,嘉義縣大林鎮中山路西林里269號,23.60735,120.454991
財團法人台灣省嘉義縣朴子高明寺,釋迦牟尼佛,嘉義縣,嘉義縣朴子市山通路文化里15鄰73號,23.4647469,120.2439334
福玄宮,"玄天上帝,池府千歲,福德正神",嘉義縣,嘉義縣溪口鄉柴林村7鄰85號,23.602444,120.37445
慈德寺,觀音佛祖,嘉義縣,嘉義縣溪口鄉民權街溪北村14鄰24號,23.6061689,120.397177
代雲寺,南無本師釋迦牟尼佛,嘉義縣,嘉義縣溪口鄉游東游東村13鄰58號,23.617458,120.401878
達磨禪直指心園,釋迦牟尼佛,嘉義縣,嘉義縣大埔鄉石硤內和平村三號,23.302987,120.622194
大發寺,太子爺,嘉義縣,嘉義縣朴子市吳竹子腳德家里6鄰53號,23.4253589,120.2452222
德和禪寺,釋迦牟尼佛,嘉義縣,嘉義縣民雄鄉中庄東榮村3鄰25號,23.557594,120.43191
慈化寺,安溪董公真人,嘉義縣,嘉義縣義竹鄉六桂村220之1號,23.33441,120.24435
壽天宮,玄天上帝,嘉義縣,嘉義縣民雄鄉溪底?三興村8鄰6號,23.5701091,120.4774111
九龍山福正善堂,道德天尊,嘉義縣,嘉義縣番路鄉頂角仔江西村五鄰三一之一號,23.475363,120.52196
慈雲亭,觀世音菩薩,嘉義縣,嘉義縣民雄鄉竹子腳西昌村6鄰1號,23.5456185,120.3821886
松府元帥廟,松府元帥,嘉義縣,嘉義縣義竹鄉竹圍小段頭竹圍段987地號,23.3362484,120.2433472
嘉義縣民雄鄉慶誠宮,天上聖母,嘉義縣,嘉義縣民雄鄉中樂路中樂村64號,23.5564004,120.4295836
海恩淨寺,釋迦牟尼佛,嘉義縣,嘉義縣民雄鄉松子腳松山村二十七號之二,23.5400605,120.4749655
田都府,田都元帥,嘉義縣,嘉義縣義竹鄉岸腳村50號,23.347468,120.25752
天南宮,觀音佛祖,嘉義縣,嘉義縣中埔鄉和睦村17鄰(和溪段一0三地號),23.4513416,120.4639256
青田寺,觀音佛祖,嘉義縣,嘉義縣朴子市文化里16鄰南通路三段782號,23.4636431,120.2431128
山西宮,山西夫子,嘉義縣,嘉義縣朴子市鴨母寮竹村里8鄰90號,23.4349834,120.2394779
民安凌宵寶殿,觀音大士,嘉義縣,嘉義縣民雄鄉建國路一段東榮村7鄰95巷73之1號,23.5561943,120.4336077
觀音禪寺,南無本師釋迦牟尼佛,嘉義縣,嘉義縣民雄鄉寮頂村3鄰67號,23.5727049,120.4211373
聖公聖媽廟,聖公聖媽,嘉義縣,嘉義縣民雄鄉中樂村11鄰﹝民北段210地號﹞,23.5562271,120.4284085
天后宮,天上聖母,嘉義縣,嘉義縣溪口鄉阿連庄柳溝村4鄰35號,23.5914899,120.4221373
進興宮,太子爺,嘉義縣,嘉義縣番路鄉下坑村七鄰五之一號,23.472977,120.5353
溪龍宮,玄天上帝,嘉義縣,嘉義縣民雄鄉溪底寮秀林村13鄰5號,23.5083457,120.4686334
開山廟,鄭成功,嘉義縣,嘉義縣民雄鄉鎮北村7鄰20號,23.5766936,120.4503515
玄聖宮,天上聖母,嘉義縣,嘉義縣民雄鄉葉子寮東興村23號,23.556261,120.500745
保生大帝廟,保生大帝,嘉義縣,嘉義縣民雄鄉民族路西安村19鄰54號,23.5556314,120.4286483
豐厚宮,福德正神,嘉義縣,嘉義縣民雄鄉江厝店興中村1鄰義橋﹝段五四三地號﹞,23.5268849,120.42081
福德爺廟,福德正神,嘉義縣,嘉義縣義竹鄉新庄東光村12鄰9號,23.37015,120.249647
如意宮,三清道祖,嘉義縣,嘉義縣民雄鄉大丘園大崎村5鄰11之6號,23.5273988,120.4665748
玄武宮,玄天上帝,嘉義縣,嘉義縣民雄鄉番仔溝平和村6鄰13之1號,23.5548055,120.4337233
北天宮,玄天上帝,嘉義縣,嘉義縣民雄鄉內埔仔大崎村8鄰28之2號,23.521513,120.4406276
義仁萬善祠,萬善爺,嘉義縣,嘉義縣中埔鄉樹頭埔義仁村十三鄰段三六一地號,23.442909,120.5130025
永壽宮,松樹尊王,嘉義縣,嘉義縣大林鎮中林中林里7鄰48號,23.5979317,120.4693453
大林順天宮,玄天上帝,嘉義縣,嘉義縣大林鎮三角三角里4鄰38號,23.6281218,120.4991476
隆天宮,王爺宮 (雷府千歲),嘉義縣,嘉義縣大林鎮三塊厝義和里2鄰15號,23.6141818,120.4839183
財團法人台灣省嘉義縣義德寺,釋迦牟尼佛,嘉義縣,嘉義縣番路鄉凸湖內甕村五號,23.4595777,120.5230662
北極殿,玄天上帝,嘉義縣,嘉義縣溪口鄉中正路溪西村三鄰182號,23.6032843,120.394865
龍水宮,莊奶夫人,嘉義縣,嘉義縣朴子市安福里21鄰天星新村34之1號,23.467245,120.2553911
永福宮,三山國王,嘉義縣,嘉義縣新港鄉古民村10鄰159號,23.563904,120.3536396
法海淨寺,釋迦牟尼佛,嘉義縣,嘉義縣新港鄉番婆安和村8鄰123之3號,23.516083,120.310612
圓光寺,釋迦牟尼佛,嘉義縣,嘉義縣朴子市八德路永和里4鄰340號,23.4628988,120.2358804
普安宮,玄天上帝,嘉義縣,嘉義縣民雄鄉林子尾秀林村4鄰4l號,23.51124,120.474137
布伯公廟,福德正神,嘉義縣,嘉義縣朴子市海通路平和里2之42號,23.4641525,120.2482036
南極代天宮,池府千歲,嘉義縣,嘉義縣朴子市新庄里7鄰新庄段農牧小段463號,23.4268361,120.2621892
好嘉宮,保生大帝,嘉義縣,嘉義縣民雄鄉頂店仔平和村1鄰7之1號,23.5547232,120.4338255
太子宮,魏王爺,嘉義縣,嘉義縣朴子市苦瓜寮佳禾里1鄰42之6號旁,23.450353,120.257113
玉天門鎮天宮,五府千歲,嘉義縣,嘉義縣番路鄉下坑村七鄰八號,23.468599,120.547048
萬善公祠,萬姓公,嘉義縣,嘉義縣番路鄉下坑村一鄰蔡公店一之一號,23.4643682,120.553248
福安祠,大眾爺,嘉義縣,嘉義縣民雄鄉雙福村﹝鴨母?段鴨母?小段161號之4﹞,23.5357206,120.4401145
竹禪寺,妮聖娘娘,嘉義縣,嘉義縣義竹鄉六桂村207之1號,23.3374753,120.2444454
財團法人台灣省嘉義縣義竹鄉普照寺,釋迦牟尼佛,嘉義縣,嘉義縣義竹鄉龍蛟村十鄰一八四號,23.37229,120.2218839
財團法人台灣省嘉義縣民雄鄉大士爺廟,觀音菩薩,嘉義縣,嘉義縣民雄鄉中樂路中樂村八十一號,23.5561219,120.4295736
上升宮,玄天上帝,嘉義縣,嘉義縣民雄鄉松子腳松山村4鄰43號,23.5400353,120.4751985
千歲宮,池府千歲,嘉義縣,嘉義縣義竹鄉過子路西過村15鄰305號,23.305571,120.200901
鎮安宮,五府千歲,嘉義縣,嘉義縣義竹鄉後鎮村2鄰17之1號,23.3658632,120.2102182
龍興廟,五府千歲,嘉義縣,嘉義縣義竹鄉龍蛟潭段145之0號,23.37229,120.2218839
新福宮,保生大帝,嘉義縣,嘉義縣民雄鄉北勢子北斗村6鄰67號,23.5344597,120.4602183
阿里山寺,釋迦牟尼佛,嘉義縣,嘉義縣番路鄉龍頭公田村2鄰15-5號,23.4497473,120.6675345
福興宮,神農聖帝,嘉義縣,嘉義縣太保市梅埔里14鄰7之1號,23.441913,120.34023
平安宮,三山國王,嘉義縣,嘉義縣太保市前潭里後潭10鄰110號,23.4610249,120.3330682
三王府,三王爺,嘉義縣,嘉義縣太保市新埤里1鄰新埤段新埤小段448號,23.4930954,120.3377892
五穀王廟,五穀聖帝,嘉義縣,嘉義縣民雄鄉豊收村四鄰三十八號,23.5619951,120.450493
忠義公廟,忠義公,嘉義縣,嘉義縣民雄鄉忠義街金興村22鄰140之1號,23.5178819,120.440061
土地公廟,神農聖帝,嘉義縣,嘉義縣民雄鄉菁埔村107號,23.5568597,120.3987462
保安宮,李府千歲,嘉義縣,嘉義縣義竹鄉新富村5鄰44號,23.321431,120.219443
廣濟宮,池王爺,嘉義縣,嘉義縣民雄鄉牛斗山山中村6鄰78號,23.5214218,120.4203899
保安宮,保生大帝,嘉義縣,嘉義縣民雄鄉社溝中和村2鄰38號,23.5466972,120.4122148
代天院,五府千歲,嘉義縣,嘉義縣義竹鄉五厝村8鄰18之1號,23.354278,120.273413
廣興宮,玄天上帝,嘉義縣,嘉義縣民雄鄉牛稠溪福興村6鄰60號,23.5105432,120.4263305
三主宮,觀音佛祖,嘉義縣,嘉義縣民雄鄉頂寮寮頂村1鄰59之1號,23.5709722,120.4269229
玄聖宮,開漳聖王,嘉義縣,嘉義縣民雄鄉雙援平和村4鄰16之1號,23.548589,120.390416
慈善宮,觀音佛祖,嘉義縣,嘉義縣溪口鄉游東村9鄰（游厝段游東小段814號）,23.620138,120.40558
本廳大帝宮,保生大帝,嘉義縣,嘉義縣溪口鄉本廳本厝村9鄰60號,23.579434,120.387785
太子宮,太子元帥,嘉義縣,嘉義縣番路鄉頂宅仔江西村七鄰(內甕段二二七之一地號),23.4764902,120.5224945
大明殿,真武大帝,嘉義縣,嘉義縣民雄鄉中庄東榮村2鄰19號之1,23.5566687,120.4349062
震南宮,關聖帝君,嘉義縣,嘉義縣水上鄉溪仔底內溪村7鄰13號,23.436694,120.42988
真武廟,真武大帝,嘉義縣,嘉義縣布袋鎮貴舍里貴舍72號,23.426039,120.211687
玄天宮,玄天上帝,嘉義縣,嘉義縣六腳鄉大塗師塗師村1鄰1之1號,23.506612,120.282863
慈德寺,清水祖師公,嘉義縣,嘉義縣鹿草鄉松竹村4鄰33號,23.395685,120.2919229
慶雲宮,康趙元帥,嘉義縣,嘉義縣竹崎鄉檨仔寮文峰村四鄰十四之二號,23.513856,120.594109
灣橋北極殿,玄天上帝,嘉義縣,嘉義縣竹崎鄉灣橋村二十鄰二六六號,23.491565,120.5046381
安世宮,開台聖王,嘉義縣,嘉義縣竹崎鄉義和村二鄰二十六號,23.5079254,120.4989863
靜慮寺,釋迦牟尼佛,嘉義縣,嘉義縣中埔鄉沄水村九鄰頭崎七之五號,23.389028,120.51958
武聖宮,關聖帝君,嘉義縣,嘉義縣布袋鎮中山路岑海里289號,23.379578,120.1499279
財團法人臺灣省嘉義縣新港鄉中洋村北極玄天宮,北極玄天上帝,嘉義縣,嘉義縣新港鄉中洋子中洋村4鄰81之1號,23.526838,120.370421
福玄宮,土地公,嘉義縣,嘉義縣大林鎮大埔美段587地號,23.6050318,120.4778165
朝天南安宮,黎山老母,嘉義縣,嘉義縣番路鄉轆子腳段轆子腳小段八四之四地號,23.457658,120.525978
慶安宮,李府千歲,嘉義縣,嘉義縣義竹鄉下寮頭竹村20鄰1號,23.336116,120.231072
九龍山濟公禪寺,濟公,嘉義縣,嘉義縣民雄鄉內埔仔大崎村7號,23.5151489,120.4871826
鐵圍山行府廟,焦面大士,嘉義縣,嘉義縣民雄鄉建國路文隆村17鄰二段187之94號,23.5225154,120.4406435
興南府,五府千歲,嘉義縣,嘉義縣民雄鄉十四甲大崎村12鄰398號,23.5107472,120.4657132
玄德宮,玄天上帝,嘉義縣,嘉義縣民雄鄉鴨母?文隆村10鄰47號,23.538585,120.42148
財團法人民雄教會聚會所,財團法人民雄教會聚會所,嘉義縣,嘉義縣民雄鄉建國路二段185之4號,23.5382761,120.4354061
財團法人中華基督教民生浸信會,財團法人中華基督教民生浸信會,嘉義縣,嘉義縣水上鄉成功街民生村13鄰7巷22號,23.4488628,120.4343757
財團法人台灣省嘉義縣朴子教會聚會所,財團法人台灣省嘉義縣朴子教會聚會所,嘉義縣,嘉義縣朴子市山通路1之34號,23.4667822,120.2510941
財團法人朴子基督教浸禮聖經會,財團法人朴子基督教浸禮聖經會,嘉義縣,嘉義縣朴子市開元路83號,23.4678231,120.2457091
